PROGRESS-MS 32          
1 65586U 25204A   25334.54411181  .00007982  00000+0  15180-3 0  9998
2 65586  51.6312 202.8529 0003690 187.0517 173.0420 15.49206888   272
CYGNUS NG-23            
1 65616U 25208A   25334.54411181  .00007982  00000+0  15180-3 0  9996
2 65616  51.6312 202.8529 0003690 187.0517 173.0420 15.49206888   221
DRAGONFLY               
1 65729U 98067XH  25334.06728159  .00136962  00000+0  12301-2 0  9999
2 65729  51.6265 200.4173 0006450 201.2290 158.8439 15.67290907 11178
1998-067XJ              
1 65730U 98067XJ  25334.03428924  .01821158  22983-2  27121-2 0  9997
2 65730  51.6143 195.6214 0011480 220.5612 139.4546 16.04584786 11231
1998-067XK              
1 65731U 98067XK  25334.02076614  .00087103  00000+0  94044-3 0  9997
2 65731  51.6290 201.6160 0005992 174.9051 185.2005 15.62876971 11156
RSP-03                  
1 65732U 98067XL  25334.04553846  .00111988  00000+0  11085-2 0  9999
2 65732  51.6275 201.0258 0006910 178.3876 181.7143 15.64963038 11175
GHS-01                  
1 65733U 98067XM  25334.35588204  .00170079  00000+0  14052-2 0  9993
2 65733  51.6287 198.6005 0006878 201.6780 158.3927 15.69211694 11233
YOTSUBA-KULOVER         
1 65941U 98067XN  25333.37370436  .00058681  00000+0  79035-3 0  9998
2 65941  51.6289 207.0418 0002372 147.8158 212.2979 15.57263891  7778
BOTAN                   
1 65942U 98067XP  25334.36475178  .00096969  00000+0  11760-2 0  9999
2 65942  51.6296 201.6606 0004564 157.9332 202.1859 15.59824542  7938
E-KAGAKU-1              
1 65943U 98067XQ  25334.01519658  .00065299  00000+0  87589-3 0  9999
2 65943  51.6305 203.8267 0003783 135.1166 225.0132 15.57324386  7872
HRC MONOBLOCK CAMERA    
1 66052U 98067XR  25334.36473947  .00036812  00000+0  58423-3 0  9993
2 66052  51.6305 203.1547 0004569 134.7899 225.3463 15.52986760  6918
HTV-X1                  
1 66174U 25241A   25334.54411181  .00007982  00000+0  15180-3 0  9993
2 66174  51.6312 202.8529 0003690 187.0517 173.0420 15.49206888   513
